NORAD_CAT_ID,OBJECT_NAME,OBJECT_TYPE,EPOCH,MEAN_MOTION,ECCENTRICITY,INCLINATION,RA_OF_ASC_NODE,ARG_OF_PERICENTER,MEAN_ANOMALY,BSTAR,MEAN_MOTION_DOT,MEAN_MOTION_DDOT,TLE_LINE0,TLE_LINE1,TLE_LINE2,SEMIMAJOR_AXIS,PERIOD,APOGEE,PERIGEE,DECAYED
52093.0,STARLINK-3673,PAYLOAD,2023-02-10 04:12:37,15.08828846,0.0001652,53.2165,92.7829,106.6534,253.464,4.9173e-05,4.94e-06,0.0,0 STARLINK-3673,1 52093U 22029F   23041.17543569  .00000494  00000-0  49173-4 0  9999,2 52093  53.2165  92.7829 0001652 106.6534 253.4640 15.08828846 51043,6917.914,95.438,540.922,538.637,0.0
52093.0,STARLINK-3673,PAYLOAD,2023-02-10 10:34:10,15.08835404,0.0001707,53.2167,91.5926,114.6977,245.4193,0.0001757,2.509e-05,0.0,0 STARLINK-3673,1 52093U 22029F   23041.44039405  .00002509  00000-0  17570-3 0  9992,2 52093  53.2167  91.5926 0001707 114.6977 245.4193 15.08835404 51087,6917.894,95.438,540.94,538.579,0.0
52093.0,STARLINK-3673,PAYLOAD,2023-02-11 10:24:57,15.0884115,0.0001535,53.2162,87.13,121.356,238.7582,0.00016607,2.356e-05,0.0,0 STARLINK-3673,1 52093U 22029F   23042.43399446  .00002356  00000-0  16607-3 0  9996,2 52093  53.2162  87.1300 0001535 121.3560 238.7582 15.08841150 51230,6917.877,95.437,540.804,538.68,0.0
52093.0,STARLINK-3673,PAYLOAD,2023-02-12 10:15:44,15.08838033,0.0001353,53.2157,82.6696,86.3488,273.7658,0.00014446,2.012e-05,0.0,0 STARLINK-3673,1 52093U 22029F   23043.42760067  .00002012  00000-0  14446-3 0  9995,2 52093  53.2157  82.6696 0001353  86.3488 273.7658 15.08838033 51384,6917.886,95.438,540.687,538.815,0.0
52093.0,STARLINK-3673,PAYLOAD,2023-02-13 11:41:54,15.08848413,0.0001217,53.2157,77.9117,87.4165,272.6966,0.00021612,3.154e-05,0.0,0 STARLINK-3673,1 52093U 22029F   23044.48743631  .00003154  00000-0  21612-3 0  9991,2 52093  53.2157  77.9117 0001217  87.4165 272.6966 15.08848413 51543,6917.855,95.437,540.562,538.878,0.0
52093.0,STARLINK-3673,PAYLOAD,2023-02-13 19:38:50,15.08840219,0.0001362,53.216,76.4243,85.0034,275.1114,1.9148e-05,1.7e-07,0.0,0 STARLINK-3673,1 52093U 22029F   23044.81864013  .00000017  00000-0  19148-4 0  9993,2 52093  53.2160  76.4243 0001362  85.0034 275.1114 15.08840219 51595,6917.88,95.438,540.687,538.803,0.0
52093.0,STARLINK-3673,PAYLOAD,2023-02-14 11:32:41,15.08846982,0.0001177,53.2148,73.4501,86.7733,273.3394,0.00019618,2.836e-05,0.0,0 STARLINK-3673,1 52093U 22029F   23045.48103794  .00002836  00000-0  19618-3 0  9991,2 52093  53.2148  73.4501 0001177  86.7733 273.3394 15.08846982 51697,6917.859,95.437,540.538,538.91,0.0
52093.0,STARLINK-3673,PAYLOAD,2023-02-15 00:15:47,15.088389,0.0001231,53.213,71.0709,88.0058,272.1075,9.6767e-05,1.252e-05,0.0,0 STARLINK-3673,1 52093U 22029F   23046.01096187  .00001252  00000-0  96767-4 0  9990,2 52093  53.2130  71.0709 0001231  88.0058 272.1075 15.08838900 51771,6917.884,95.438,540.6,538.897,0.0
52093.0,STARLINK-3673,PAYLOAD,2023-02-15 11:23:28,15.08853005,0.000107,53.2153,68.9896,98.8667,261.2446,0.00034863,5.267e-05,0.0,0 STARLINK-3673,1 52093U 22029F   23046.47463662  .00005267  00000-0  34863-3 0  9994,2 52093  53.2153  68.9896 0001070  98.8667 261.2446 15.08853005 51846,6917.841,95.437,540.446,538.965,0.0
52093.0,STARLINK-3673,PAYLOAD,2023-02-16 01:41:56,15.08850102,8.86e-05,53.2165,66.3127,100.6209,259.4883,0.00031743,4.769e-05,0.0,0 STARLINK-3673,1 52093U 22029F   23047.07079505  .00004769  00000-0  31743-3 0  9990,2 52093  53.2165  66.3127 0000886 100.6209 259.4883 15.08850102 51935,6917.85,95.437,540.327,539.102,0.0
52093.0,STARLINK-3673,PAYLOAD,2023-02-16 11:14:14,15.08882251,9.44e-05,53.2159,64.5293,84.9912,275.1188,0.0012527,0.00019728,0.0,0 STARLINK-3673,1 52093U 22029F   23047.46822606  .00019728  00000-0  12527-2 0  9990,2 52093  53.2159  64.5293 0000944  84.9912 275.1188 15.08882251 51991,6917.751,95.435,540.269,538.963,0.0
52093.0,STARLINK-3673,PAYLOAD,2023-02-16 17:35:47,15.08835271,0.0001036,53.2148,63.3411,92.0218,268.0892,-0.00049787,-8.201e-05,0.0,0 STARLINK-3673,1 52093U 22029F   23047.73319384 -.00008201  00000-0 -49787-3 0  9999,2 52093  53.2148  63.3411 0001036  92.0218 268.0892 15.08835271 52039,6917.895,95.438,540.477,539.043,0.0
52093.0,STARLINK-3673,PAYLOAD,2023-02-17 11:05:03,15.0883313,0.0001298,53.2156,60.0694,104.5881,255.5256,0.00057391,8.856e-05,0.0,0 STARLINK-3673,1 52093U 22029F   23048.46184346  .00008856  00000-0  57391-3 0  9992,2 52093  53.2156  60.0694 0001298 104.5881 255.5256 15.08833130 52149,6917.901,95.438,540.664,538.868,0.0
52093.0,STARLINK-3673,PAYLOAD,2023-02-17 17:26:36,15.08827886,0.0001377,53.2154,58.8802,107.3993,252.715,0.0010501,0.00016458,0.0,0 STARLINK-3673,1 52093U 22029F   23048.72680988  .00016458  00000-0  10501-2 0  9992,2 52093  53.2154  58.8802 0001377 107.3993 252.7150 15.08827886 52183,6917.917,95.438,540.735,538.83,0.0
52093.0,STARLINK-3673,PAYLOAD,2023-02-18 01:23:32,15.08827092,0.0001469,53.2153,57.3934,105.9969,254.1184,0.00062413,9.656e-05,0.0,0 STARLINK-3673,1 52093U 22029F   23049.05801412  .00009656  00000-0  62413-3 0  9998,2 52093  53.2153  57.3934 0001469 105.9969 254.1184 15.08827092 52239,6917.92,95.438,540.801,538.769,0.0
52093.0,STARLINK-3673,PAYLOAD,2023-02-18 10:55:51,15.08840687,0.0001401,53.2151,55.6094,104.2246,255.8902,0.0010576,0.00016584,0.0,0 STARLINK-3673,1 52093U 22029F   23049.45545481  .00016584  00000-0  10576-2 0  9993,2 52093  53.2151  55.6094 0001401 104.2246 255.8902 15.08840687 52298,6917.878,95.438,540.712,538.774,0.0
52093.0,STARLINK-3673,PAYLOAD,2023-02-19 09:11:14,15.08860897,0.0001409,53.215,51.4453,105.9452,254.1696,0.00084914,0.0001326,0.0,0 STARLINK-3673,1 52093U 22029F   23050.38280917  .00013260  00000-0  84914-3 0  9993,2 52093  53.2150  51.4453 0001409 105.9452 254.1696 15.08860897 52438,6917.817,95.436,540.656,538.707,0.0
52093.0,STARLINK-3673,PAYLOAD,2023-02-20 02:40:29,15.0884807,0.0001654,53.2151,48.1732,111.2912,248.8257,0.00031941,4.8e-05,0.0,0 STARLINK-3673,1 52093U 22029F   23051.11144827  .00004800  00000-0  31941-3 0  9996,2 52093  53.2151  48.1732 0001654 111.2912 248.8257 15.08848070 52549,6917.856,95.437,540.865,538.577,0.0
52093.0,STARLINK-3673,PAYLOAD,2023-02-20 07:26:38,15.08858199,0.0001414,53.2153,47.2814,103.7757,256.3393,0.00048711,7.477e-05,0.0,0 STARLINK-3673,1 52093U 22029F   23051.31016570  .00007477  00000-0  48711-3 0  9997,2 52093  53.2153  47.2814 0001414 103.7757 256.3393 15.08858199 52570,6917.825,95.436,540.668,538.712,0.0
52093.0,STARLINK-3673,PAYLOAD,2023-02-21 02:31:16,15.0884296,0.0001489,53.2154,43.7124,88.3167,271.7995,6.5819e-05,7.6e-06,0.0,0 STARLINK-3673,1 52093U 22029F   23052.10504915  .00000760  00000-0  65819-4 0  9997,2 52093  53.2154  43.7124 0001489  88.3167 271.7995 15.08842960 52692,6917.871,95.437,540.766,538.706,0.0
52093.0,STARLINK-3673,PAYLOAD,2023-02-21 08:52:48,15.08851072,0.000146,53.2158,42.5228,90.1132,270.0027,0.00020973,3.052e-05,0.0,0 STARLINK-3673,1 52093U 22029F   23052.37000578  .00003052  00000-0  20973-3 0  9990,2 52093  53.2158  42.5228 0001460  90.1132 270.0027 15.08851072 52737,6917.847,95.437,540.722,538.702,0.0
52093.0,STARLINK-3673,PAYLOAD,2023-02-21 16:49:44,15.08847118,0.0001412,53.2158,41.0358,92.4126,267.7028,0.00017638,2.521e-05,0.0,0 STARLINK-3673,1 52093U 22029F   23052.70120625  .00002521  00000-0  17638-3 0  9997,2 52093  53.2158  41.0358 0001412  92.4126 267.7028 15.08847118 52785,6917.859,95.437,540.7,538.747,0.0
52093.0,STARLINK-3673,PAYLOAD,2023-02-22 03:57:26,15.08848558,0.0001503,53.2166,38.9556,95.1705,264.9458,0.00021123,3.076e-05,0.0,0 STARLINK-3673,1 52093U 22029F   23053.16488589  .00003076  00000-0  21123-3 0  9994,2 52093  53.2166  38.9556 0001503  95.1705 264.9458 15.08848558 52856,6917.854,95.437,540.759,538.679,0.0
52093.0,STARLINK-3673,PAYLOAD,2023-02-22 08:43:35,15.08855091,0.0001545,53.2164,38.0626,95.8707,264.2461,0.00032251,4.851e-05,0.0,0 STARLINK-3673,1 52093U 22029F   23053.36360221  .00004851  00000-0  32251-3 0  9994,2 52093  53.2164  38.0626 0001545  95.8707 264.2461 15.08855091 52888,6917.834,95.437,540.768,538.63,0.0
52093.0,STARLINK-3673,PAYLOAD,2023-02-22 21:26:40,15.08837794,0.0001496,53.2166,35.6836,106.4036,253.7121,4.3324e-05,4.02e-06,0.0,0 STARLINK-3673,1 52093U 22029F   23053.89352989  .00000402  00000-0  43324-4 0  9996,2 52093  53.2166  35.6836 0001496 106.4036 253.7121 15.08837794 52960,6917.887,95.438,540.787,538.717,0.0
52093.0,STARLINK-3673,PAYLOAD,2023-02-23 02:12:50,15.08837733,0.0001364,53.2169,34.7923,98.4997,261.615,2.1538e-05,5.5e-07,0.0,0 STARLINK-3673,1 52093U 22029F   23054.09224973  .00000055  00000-0  21538-4 0  9997,2 52093  53.2169  34.7923 0001364  98.4997 261.6150 15.08837733 52996,6917.887,95.438,540.696,538.809,0.0
52093.0,STARLINK-3673,PAYLOAD,2023-02-23 08:34:22,15.08849394,0.0001245,53.2167,33.6022,96.2317,263.8817,0.00050657,7.785e-05,0.0,0 STARLINK-3673,1 52093U 22029F   23054.35720753  .00007785  00000-0  50657-3 0  9993,2 52093  53.2167  33.6022 0001245  96.2317 263.8817 15.08849394 53038,6917.852,95.437,540.578,538.855,0.0
52093.0,STARLINK-3673,PAYLOAD,2023-02-23 21:17:28,15.08843637,0.0001232,53.2169,31.2235,98.8388,261.2743,0.00047993,7.359e-05,0.0,0 STARLINK-3673,1 52093U 22029F   23054.88712971  .00007359  00000-0  47993-3 0  9990,2 52093  53.2169  31.2235 0001232  98.8388 261.2743 15.08843637 53115,6917.869,95.437,540.587,538.882,0.0
52093.0,STARLINK-3673,PAYLOAD,2023-02-24 08:25:09,15.08862904,0.0001198,53.2169,29.1417,98.2895,261.8233,0.00088583,0.00013847,0.0,0 STARLINK-3673,1 52093U 22029F   23055.35080388  .00013847  00000-0  88583-3 0  9992,2 52093  53.2169  29.1417 0001198  98.2895 261.8233 15.08862904 53186,6917.81,95.436,540.504,538.847,0.0
52093.0,STARLINK-3673,PAYLOAD,2023-02-24 21:08:14,15.08837466,0.0001084,53.2171,26.7631,114.9349,245.1756,-1.1939e-05,-4.78e-06,0.0,0 STARLINK-3673,1 52093U 22029F   23055.88072911 -.00000478  00000-0 -11939-4 0  9993,2 52093  53.2171  26.7631 0001084 114.9349 245.1756 15.08837466 53263,6917.888,95.438,540.503,539.003,0.0
